MOLNIYA 2-9             
1 07276U 74026A   16076.00008679  .00000115  00000-0  16632-3 0  9999
2 07276  62.6261 256.8933 7041408 284.0637  12.2278  2.45092532193363
MOLNIYA 2-10            
1 07376U 74056A   16078.20142128 -.00000498  00000-0  69164-3 0  9998
2 07376  62.1416  16.8338 7485406 286.5741   9.2362  2.00990958304507
MOLNIYA 1-S             
1 07392U 74060A   16076.82826161  .00000104  00000-0  00000+0 0  9996
2 07392   9.9580 312.7723 0009753 160.9787  42.7473  1.00246699 96617
MOLNIYA 1-29            
1 07780U 75036A   16076.39238774  .00000230  00000-0 -17200-2 0  9994
2 07780  61.6166 201.9219 7295927 266.2162  15.8373  2.00690960299795
MOLNIYA 2-13            
1 08015U 75063A   16076.55728500  .00001506  00000-0 -14642-2 0  9999
2 08015  61.5399 205.8625 7355298 262.6417  16.6343  2.00606602298154
MOLNIYA 2-14            
1 08195U 75081A   16076.30830303  .00000064  00000-0 -65723-3 0  9991
2 08195  61.4050 175.8217 7343855 268.0202  14.8465  2.00534105296877
MOLNIYA 3-3             
1 08425U 75105A   16077.36726320  .00000003  00000-0 -15348-3 0  9995
2 08425  61.1957 198.7410 7405320 260.1091  17.1750  2.00706624295587
MOLNIYA 1-32            
1 08601U 76006A   16075.77820024  .00000756  00000-0 -40230-2 0  9993
2 08601  62.3564 272.7712 7302549 264.4106  16.3758  2.00069980  7016
MOLNIYA 2-17            
1 09829U 77010A   16076.58158713 -.00001430  00000-0 -16586-3 0  9990
2 09829  62.0924 301.4058 7388408 250.0125  22.0278  2.00672992286461
MOLNIYA 1-36            
1 09880U 77021A   16076.03466689 -.00000752  00000-0 -21514-2 0  9995
2 09880  61.9175 265.5768 7365122 261.2090  17.0420  2.00881810183577
MOLNIYA 3-7             
1 09941U 77032A   16076.53558349 -.00001038  00000-0 -85850-3 0  9997
2 09941  61.7127 274.0219 7399422 254.1250  19.7893  2.00643354284928
MOLNIYA 3-8             
1 10455U 77105A   16075.80745791  .00001156  00000-0  10052-2 0  9998
2 10455  62.5945 335.8454 7423998 262.8194  15.9936  2.00792648281309
MOLNIYA 1-40            
1 10925U 78055A   16076.86059915  .00000441  00000-0  27078-3 0  9991
2 10925  62.4700   8.7140 7446399 266.7845  14.5018  2.00534142276902
MOLNIYA 3-10            
1 11057U 78095A   16077.99972640  .00000212  00000-0  59603-3 0  9991
2 11057  62.4610 113.5028 7163230 263.9624  17.8680  2.34230327300086
MOLNIYA 1-44            
1 11474U 79070A   16078.04323375  .00112056  24624-5  57821-3 0  9993
2 11474  62.0923 287.9298 2135483 299.2556  41.1483 11.35473923510038
MOLNIYA 3-13            
1 11896U 80063A   16078.12585555 -.00000085  00000-0 -46261-3 0  9997
2 11896  62.7684 111.0411 7269796 263.2668  17.1844  2.00632322261350
MOLNIYA 1-49            
1 12156U 81009A   16076.59960189  .00000508  00000-0  00000+0 0  9992
2 12156  64.4572 127.9666 6790804 252.1092 225.8622  2.05698748174544
MOLNIYA 1-52            
1 13012U 81123A   16078.01442207  .00001174  00000-0  43397+0 0  9992
2 13012  64.4322 199.3153 6529803 260.4982  57.3563  2.00705688250850
MOLNIYA 1-53            
1 13070U 82015A   16078.01518491  .00000103  00000-0 -26022-2 0  9997
2 13070  62.5914 201.1471 7128765 262.2227 115.7281  2.00687611249455
MOLNIYA 3-20            
1 13875U 83015A   16077.07104947  .00000599  00000-0  18376-1 0  9993
2 13875  63.9980 270.1077 6862320 266.5420 346.3250  2.00799933177940
MOLNIYA 1-56            
1 13890U 83019A   16076.79905299 -.00001344  00000-0  00000-0 0  9995
2 13890  63.7358 306.9948 7090179 265.7544 198.5637  1.99898998240948
MOLNIYA 1-62            
1 15214U 84089A   16078.18998211  .00001289  00000-0  18199-2 0  9993
2 15214  63.5099 340.0661 7325990 261.9897 249.0222  1.97936787199089
MOLNIYA 1-63            
1 15429U 84124A   16078.01876227  .00001197  00000-0  00000+0 0  9992
2 15429  63.8476  48.3294 6936994 274.7298 348.4587  2.00756090229014
MOLNIYA 3-24            
1 15738U 85040A   16076.59976758  .00000037  00000-0  15645-1 0  9999
2 15738  64.5001  91.3908 6420127 270.4227 219.9882  2.55629345245526
MOLNIYA 3-27            
1 16393U 85117A   16076.26173613  .00000021  00000-0 -14721-2 0  9994
2 16393  64.7326 329.0378 6817902 279.0174 327.4101  2.12397188225656
MOLNIYA 1-69            
1 17078U 86089A   16077.16142675 -.00001088  00000-0  32575-1 0  9998
2 17078  64.0734  74.2988 6920352 276.5389 156.3700  2.00970449215021
MOLNIYA 3-31            
1 17328U 87008A   16077.07684697  .00000410  00000-0  10777-1 0  9990
2 17328  64.1763  19.0240 7038858 273.6392 140.0678  2.00638409210097
MOLNIYA 1-71            
1 18946U 88017A   16078.20377921 -.00000053  00000-0  18875-3 0  9996
2 18946  64.0307  32.2978 7108512 271.1355 226.0974  2.00671412205313
MOLNIYA 1-75            
1 19807U 89014A   16076.62151360 -.00000138  00000-0  84358-1 0  9993
2 19807  63.6281 186.0370 6808926 281.1237  14.6439  2.00549801198296
MOLNIYA 1-80            
1 21118U 91012A   16076.52089375 -.00000846  00000-0 -28051-2 0  9993
2 21118  62.9263 241.5851 7169628 291.1936   9.7530  2.05252633184127
MOLNIYA 3-40            
1 21196U 91022A   16076.70909266  .00000710  00000-0 -45945-2 0  9990
2 21196  63.1293 227.9915 7108196 291.0360  10.1210  2.02989561183305
MOLNIYA 1-81            
1 21426U 91043A   16078.01580113  .00000071  00000-0  00000+0 0  9990
2 21426  63.4822 246.5684 7044016 283.5771  12.3005  2.00625498181368
MOLNIYA 3-41            
1 21706U 91065A   16077.46222595 -.00000096  00000-0  13076-1 0  9997
2 21706  64.0166  72.2078 7013494 278.0145 283.6209  2.04361019180287
MOLNIYA 3-42            
1 22178U 92067A   16077.12570184  .00000133  00000-0  00000+0 0  9999
2 22178  63.1834 152.2516 6884723 288.7036  12.0749  2.20435124174188
MOLNIYA 1-86            
1 22671U 93035A   16078.16033968  .00000590  00000-0  32745-3 0  9994
2 22671  62.9315 124.7023 4929126 330.3539   9.0810  5.62367430223858
MOLNIYA 1-87            
1 22949U 93079A   16076.19716626  .00004985  00000-0  10113-2 0  9996
2 22949  62.1081  35.5933 7503807 280.9547  10.2767  2.01862899162950
MOLNIYA 1-88            
1 23420U 94081A   16077.06275461 -.00000020  00000-0  25793-3 0  9997
2 23420  63.0800  47.3587 6329016 298.9200  12.4461  3.34506816170564
MOLNIYA 3-47            
1 23642U 95042A   16072.01090381  .00003723  00000-0  52155-3 0  9991
2 23642  62.2051  12.1611 7500894 280.4704  10.4626  2.01669535150894
MOLNIYA 1-90            
1 24960U 97054A   16078.09210487  .00332090  25995-4  39295-3 0  9991
2 24960  62.3249  37.7048 7197972 280.2637  12.3663  2.45949367136299
MOLNIYA 1-91            
1 25485U 98054A   16077.40060697 -.00000147  00000-0  84768-3 0  9992
2 25485  61.8664 189.6683 7322678 266.0440  63.0225  2.00710241127965
MOLNIYA 3-50            
1 25847U 99036A   16077.68773444 -.00000407  00000-0 -10225-2 0  9992
2 25847  62.5103 317.2294 7389372 261.9399  16.5920  2.00621794122314
MOLNIYA 3-51            
1 26867U 01030A   16077.19777852  .00004623  00000-0  71391-3 0  9999
2 26867  62.4143 161.8641 7093457 264.9783  33.2983  2.53130129111144
MOLNIYA 1-93            
1 28163U 04005A   16076.90771681  .02298045 -51797-5  51771-3 0  9997
2 28163  63.0257 329.0790 6797068 244.5381  32.9543  3.02581603 88971
